[
  {
    "OBJECT_NAME": "STARLINK-2675",
    "OBJECT_ID": "21040AU",
    "EPOCH": "2025-11-11T04:31:42.940416",
    "MEAN_MOTION": 15.06398964,
    "ECCENTRICITY": 0.000119,
    "INCLINATION": 53.0551,
    "RA_OF_ASC_NODE": 3.9343,
    "ARG_OF_PERICENTER": 50.8371,
    "MEAN_ANOMALY": 309.2724,
    "EPHEMERIS_TYPE": 0,
    "CLASSIFICATION_TYPE": "U",
    "NORAD_CAT_ID": 48470,
    "ELEMENT_SET_NO": 999,
    "REV_AT_EPOCH": 24862,
    "BSTAR": 8.110800000000001e-05,
    "MEAN_MOTION_DOT": 9.27e-06,
    "MEAN_MOTION_DDOT": 0.0,
    "TLE_LINE1": "1 48470U 21040AU  25315.18869144  .00000927  00000+0  81108-4 0  9996",
    "TLE_LINE2": "2 48470  53.0551   3.9343 0001190  50.8371 309.2724 15.06398964248621",
    "COMMENT": "Grouped by shell and plane from TLE"
  },
  {
    "OBJECT_NAME": "STARLINK-2684",
    "OBJECT_ID": "21040AV",
    "EPOCH": "2025-11-11T06:44:20.489280",
    "MEAN_MOTION": 15.06394104,
    "ECCENTRICITY": 0.00012,
    "INCLINATION": 53.0548,
    "RA_OF_ASC_NODE": 3.1782,
    "ARG_OF_PERICENTER": 73.3752,
    "MEAN_ANOMALY": 286.7369,
    "EPHEMERIS_TYPE": 0,
    "CLASSIFICATION_TYPE": "U",
    "NORAD_CAT_ID": 48471,
    "ELEMENT_SET_NO": 999,
    "REV_AT_EPOCH": 24864,
    "BSTAR": 0.00026481,
    "MEAN_MOTION_DOT": 3.664e-05,
    "MEAN_MOTION_DDOT": 0.0,
    "TLE_LINE1": "1 48471U 21040AV  25315.28079270  .00003664  00000+0  26481-3 0  9994",
    "TLE_LINE2": "2 48471  53.0548   3.1782 0001200  73.3752 286.7369 15.06394104248640",
    "COMMENT": "Grouped by shell and plane from TLE"
  },
  {
    "OBJECT_NAME": "STARLINK-2722",
    "OBJECT_ID": "21040AW",
    "EPOCH": "2025-11-11T03:06:43.061184",
    "MEAN_MOTION": 15.06409821,
    "ECCENTRICITY": 0.0001485,
    "INCLINATION": 53.0562,
    "RA_OF_ASC_NODE": 3.8584,
    "ARG_OF_PERICENTER": 94.4097,
    "MEAN_ANOMALY": 265.7062,
    "EPHEMERIS_TYPE": 0,
    "CLASSIFICATION_TYPE": "U",
    "NORAD_CAT_ID": 48472,
    "ELEMENT_SET_NO": 999,
    "REV_AT_EPOCH": 24861,
    "BSTAR": 0.000102,
    "MEAN_MOTION_DOT": 1.239e-05,
    "MEAN_MOTION_DDOT": 0.0,
    "TLE_LINE1": "1 48472U 21040AW  25315.12966506  .00001239  00000+0  10200-3 0  9993",
    "TLE_LINE2": "2 48472  53.0562   3.8584 0001485  94.4097 265.7062 15.06409821248612",
    "COMMENT": "Grouped by shell and plane from TLE"
  },
  {
    "OBJECT_NAME": "STARLINK-2658",
    "OBJECT_ID": "21040AX",
    "EPOCH": "2025-11-11T07:10:53.577408",
    "MEAN_MOTION": 15.06401234,
    "ECCENTRICITY": 0.0001212,
    "INCLINATION": 53.0559,
    "RA_OF_ASC_NODE": 3.093,
    "ARG_OF_PERICENTER": 87.8697,
    "MEAN_ANOMALY": 272.2431,
    "EPHEMERIS_TYPE": 0,
    "CLASSIFICATION_TYPE": "U",
    "NORAD_CAT_ID": 48473,
    "ELEMENT_SET_NO": 999,
    "REV_AT_EPOCH": 24864,
    "BSTAR": 0.0015389,
    "MEAN_MOTION_DOT": 0.00022715,
    "MEAN_MOTION_DDOT": 0.0,
    "TLE_LINE1": "1 48473U 21040AX  25315.29923122  .00022715  00000+0  15389-2 0  9993",
    "TLE_LINE2": "2 48473  53.0559   3.0930 0001212  87.8697 272.2431 15.06401234248642",
    "COMMENT": "Grouped by shell and plane from TLE"
  },
  {
    "OBJECT_NAME": "STARLINK-2697",
    "OBJECT_ID": "21040AY",
    "EPOCH": "2025-11-11T03:12:01.071072",
    "MEAN_MOTION": 15.06441013,
    "ECCENTRICITY": 0.0001257,
    "INCLINATION": 53.0539,
    "RA_OF_ASC_NODE": 3.8384,
    "ARG_OF_PERICENTER": 122.7484,
    "MEAN_ANOMALY": 237.3627,
    "EPHEMERIS_TYPE": 0,
    "CLASSIFICATION_TYPE": "U",
    "NORAD_CAT_ID": 48474,
    "ELEMENT_SET_NO": 999,
    "REV_AT_EPOCH": 24861,
    "BSTAR": 0.0010342,
    "MEAN_MOTION_DOT": 0.00015173,
    "MEAN_MOTION_DDOT": 0.0,
    "TLE_LINE1": "1 48474U 21040AY  25315.13334573  .00015173  00000+0  10342-2 0  9997",
    "TLE_LINE2": "2 48474  53.0539   3.8384 0001257 122.7484 237.3627 15.06441013248619",
    "COMMENT": "Grouped by shell and plane from TLE"
  },
  {
    "OBJECT_NAME": "STARLINK-2728",
    "OBJECT_ID": "21040BC",
    "EPOCH": "2025-11-11T07:26:47.786784",
    "MEAN_MOTION": 15.06398746,
    "ECCENTRICITY": 0.0001558,
    "INCLINATION": 53.0566,
    "RA_OF_ASC_NODE": 3.0445,
    "ARG_OF_PERICENTER": 101.9668,
    "MEAN_ANOMALY": 258.1496,
    "EPHEMERIS_TYPE": 0,
    "CLASSIFICATION_TYPE": "U",
    "NORAD_CAT_ID": 48478,
    "ELEMENT_SET_NO": 999,
    "REV_AT_EPOCH": 24864,
    "BSTAR": 0.0,
    "MEAN_MOTION_DOT": -1.571e-05,
    "MEAN_MOTION_DDOT": 0.0,
    "TLE_LINE1": "1 48478U 21040BC  25315.31027531 -.00001571  00000+0 -86597-4 0  9990",
    "TLE_LINE2": "2 48478  53.0566   3.0445 0001558 101.9668 258.1496 15.06398746248642",
    "COMMENT": "Grouped by shell and plane from TLE"
  },
  {
    "OBJECT_NAME": "STARLINK-2755",
    "OBJECT_ID": "21040BD",
    "EPOCH": "2025-11-11T07:21:29.549664",
    "MEAN_MOTION": 15.06405581,
    "ECCENTRICITY": 0.0001721,
    "INCLINATION": 53.0569,
    "RA_OF_ASC_NODE": 3.0641,
    "ARG_OF_PERICENTER": 105.8377,
    "MEAN_ANOMALY": 254.2802,
    "EPHEMERIS_TYPE": 0,
    "CLASSIFICATION_TYPE": "U",
    "NORAD_CAT_ID": 48479,
    "ELEMENT_SET_NO": 999,
    "REV_AT_EPOCH": 24864,
    "BSTAR": 0.0,
    "MEAN_MOTION_DOT": -6.66e-06,
    "MEAN_MOTION_DDOT": 0.0,
    "TLE_LINE1": "1 48479U 21040BD  25315.30659201 -.00000666  00000+0 -25787-4 0  9993",
    "TLE_LINE2": "2 48479  53.0569   3.0641 0001721 105.8377 254.2802 15.06405581248640",
    "COMMENT": "Grouped by shell and plane from TLE"
  },
  {
    "OBJECT_NAME": "STARLINK-3848",
    "OBJECT_ID": "22045AH",
    "EPOCH": "2025-11-11T06:46:07.887072",
    "MEAN_MOTION": 15.08844083,
    "ECCENTRICITY": 0.0001363,
    "INCLINATION": 53.217,
    "RA_OF_ASC_NODE": 0.6701,
    "ARG_OF_PERICENTER": 89.6655,
    "MEAN_ANOMALY": 270.4493,
    "EPHEMERIS_TYPE": 0,
    "CLASSIFICATION_TYPE": "U",
    "NORAD_CAT_ID": 52362,
    "ELEMENT_SET_NO": 999,
    "REV_AT_EPOCH": 19804,
    "BSTAR": 0.00010098,
    "MEAN_MOTION_DOT": 1.32e-05,
    "MEAN_MOTION_DDOT": 0.0,
    "TLE_LINE1": "1 52362U 22045AH  25315.28203573  .00001320  00000+0  10098-3 0  9993",
    "TLE_LINE2": "2 52362  53.2170   0.6701 0001363  89.6655 270.4493 15.08844083198046",
    "COMMENT": "Grouped by shell and plane from TLE"
  },
  {
    "OBJECT_NAME": "STARLINK-3820",
    "OBJECT_ID": "22045AK",
    "EPOCH": "2025-11-11T03:14:09.159936",
    "MEAN_MOTION": 15.08847765,
    "ECCENTRICITY": 0.0001546,
    "INCLINATION": 53.2169,
    "RA_OF_ASC_NODE": 1.2448,
    "ARG_OF_PERICENTER": 95.1935,
    "MEAN_ANOMALY": 264.9233,
    "EPHEMERIS_TYPE": 0,
    "CLASSIFICATION_TYPE": "U",
    "NORAD_CAT_ID": 52364,
    "ELEMENT_SET_NO": 999,
    "REV_AT_EPOCH": 19802,
    "BSTAR": 0.00022846,
    "MEAN_MOTION_DOT": 3.351e-05,
    "MEAN_MOTION_DDOT": 0.0,
    "TLE_LINE1": "1 52364U 22045AK  25315.13482824  .00003351  00000+0  22846-3 0  9997",
    "TLE_LINE2": "2 52364  53.2169   1.2448 0001546  95.1935 264.9233 15.08847765198025",
    "COMMENT": "Grouped by shell and plane from TLE"
  },
  {
    "OBJECT_NAME": "STARLINK-3874",
    "OBJECT_ID": "22045AL",
    "EPOCH": "2025-11-11T06:56:43.926720",
    "MEAN_MOTION": 15.08840258,
    "ECCENTRICITY": 0.00014,
    "INCLINATION": 53.2185,
    "RA_OF_ASC_NODE": 0.6381,
    "ARG_OF_PERICENTER": 90.5764,
    "MEAN_ANOMALY": 269.5388,
    "EPHEMERIS_TYPE": 0,
    "CLASSIFICATION_TYPE": "U",
    "NORAD_CAT_ID": 52365,
    "ELEMENT_SET_NO": 999,
    "REV_AT_EPOCH": 19804,
    "BSTAR": 8.6538e-05,
    "MEAN_MOTION_DOT": 1.09e-05,
    "MEAN_MOTION_DDOT": 0.0,
    "TLE_LINE1": "1 52365U 22045AL  25315.28939730  .00001090  00000+0  86538-4 0  9994",
    "TLE_LINE2": "2 52365  53.2185   0.6381 0001400  90.5764 269.5388 15.08840258198045",
    "COMMENT": "Grouped by shell and plane from TLE"
  },
  {
    "OBJECT_NAME": "STARLINK-3808",
    "OBJECT_ID": "22045AM",
    "EPOCH": "2025-11-11T06:30:14.116608",
    "MEAN_MOTION": 15.08841111,
    "ECCENTRICITY": 0.0001389,
    "INCLINATION": 53.2179,
    "RA_OF_ASC_NODE": 0.7217,
    "ARG_OF_PERICENTER": 91.1949,
    "MEAN_ANOMALY": 268.9202,
    "EPHEMERIS_TYPE": 0,
    "CLASSIFICATION_TYPE": "U",
    "NORAD_CAT_ID": 52366,
    "ELEMENT_SET_NO": 999,
    "REV_AT_EPOCH": 19804,
    "BSTAR": 0.00013229,
    "MEAN_MOTION_DOT": 1.818e-05,
    "MEAN_MOTION_DDOT": 0.0,
    "TLE_LINE1": "1 52366U 22045AM  25315.27099672  .00001818  00000+0  13229-3 0  9990",
    "TLE_LINE2": "2 52366  53.2179   0.7217 0001389  91.1949 268.9202 15.08841111198043",
    "COMMENT": "Grouped by shell and plane from TLE"
  },
  {
    "OBJECT_NAME": "STARLINK-3817",
    "OBJECT_ID": "22045AN",
    "EPOCH": "2025-11-11T06:40:50.264256",
    "MEAN_MOTION": 15.08843932,
    "ECCENTRICITY": 0.000165,
    "INCLINATION": 53.2168,
    "RA_OF_ASC_NODE": 0.6882,
    "ARG_OF_PERICENTER": 84.334,
    "MEAN_ANOMALY": 275.784,
    "EPHEMERIS_TYPE": 0,
    "CLASSIFICATION_TYPE": "U",
    "NORAD_CAT_ID": 52367,
    "ELEMENT_SET_NO": 999,
    "REV_AT_EPOCH": 19804,
    "BSTAR": 0.00045614,
    "MEAN_MOTION_DOT": 6.98e-05,
    "MEAN_MOTION_DDOT": 0.0,
    "TLE_LINE1": "1 52367U 22045AN  25315.27835954  .00006980  00000+0  45614-3 0  9990",
    "TLE_LINE2": "2 52367  53.2168   0.6882 0001650  84.3340 275.7840 15.08843932198046",
    "COMMENT": "Grouped by shell and plane from TLE"
  },
  {
    "OBJECT_NAME": "STARLINK-3834",
    "OBJECT_ID": "22045AP",
    "EPOCH": "2025-11-11T03:03:34.271136",
    "MEAN_MOTION": 15.08843685,
    "ECCENTRICITY": 0.0001211,
    "INCLINATION": 53.2185,
    "RA_OF_ASC_NODE": 1.368,
    "ARG_OF_PERICENTER": 79.5313,
    "MEAN_ANOMALY": 280.5816,
    "EPHEMERIS_TYPE": 0,
    "CLASSIFICATION_TYPE": "U",
    "NORAD_CAT_ID": 52368,
    "ELEMENT_SET_NO": 999,
    "REV_AT_EPOCH": 19801,
    "BSTAR": 0.0,
    "MEAN_MOTION_DOT": -5.53e-06,
    "MEAN_MOTION_DDOT": 0.0,
    "TLE_LINE1": "1 52368U 22045AP  25315.12747999 -.00000553  00000+0 -16660-4 0  9998",
    "TLE_LINE2": "2 52368  53.2185   1.3680 0001211  79.5313 280.5816 15.08843685198018",
    "COMMENT": "Grouped by shell and plane from TLE"
  }
]